{
  "type": "FeatureCollection",
  "features": [
    {
      "type": "Feature",
      "properties": {
        "norad_id": 41772,
        "name": "SKYSAT-C5",
        "group": "resource",
        "lat": 76.69777448206455,
        "lon": -4.811664075507346,
        "alt_km": 452.2647517838768,
        "timestamp": "2025-12-08T23:34:03.626969+00:00",
        "meta_object_name": "SKYSAT-C5",
        "meta_object_id": "2016-058C",
        "meta_epoch": "2025-12-08T15:24:16.799040",
        "meta_mean_motion": 15.35248104,
        "meta_eccentricity": 0.00022489,
        "meta_inclination": 97.076,
        "meta_ra_of_asc_node": 26.5564,
        "meta_arg_of_pericenter": 143.4055,
        "meta_mean_anomaly": 216.7344,
        "meta_ephemeris_type": 0,
        "meta_classification_type": "U",
        "meta_norad_cat_id": 41772,
        "meta_element_set_no": 999,
        "meta_rev_at_epoch": 51453,
        "meta_bstar": 0.00038262685,
        "meta_mean_motion_dot": 0.00013027,
        "meta_mean_motion_ddot": 0,
        "tle_line1": "1 41772U 16058C   25342.64186110  .00013027  00000+0  38263-3 0  9991",
        "tle_line2": "2 41772  97.0760  26.5564 0002248 143.4055 216.7344 15.35248104514536"
      },
      "geometry": {
        "type": "Point",
        "coordinates": [
          -4.811664075507346,
          76.69777448206455
        ]
      }
    },
    {
      "type": "Feature",
      "properties": {
        "norad_id": 41773,
        "name": "SKYSAT-C2",
        "group": "resource",
        "lat": 61.47524690667529,
        "lon": -5.466758210809072,
        "alt_km": 445.631681296838,
        "timestamp": "2025-12-08T23:34:03.626979+00:00",
        "meta_object_name": "SKYSAT-C2",
        "meta_object_id": "2016-058D",
        "meta_epoch": "2025-12-08T15:29:09.817728",
        "meta_mean_motion": 15.37129465,
        "meta_eccentricity": 0.00046492,
        "meta_inclination": 97.036,
        "meta_ra_of_asc_node": 7.3456,
        "meta_arg_of_pericenter": 44.7513,
        "meta_mean_anomaly": 315.4107,
        "meta_ephemeris_type": 0,
        "meta_classification_type": "U",
        "meta_norad_cat_id": 41773,
        "meta_element_set_no": 999,
        "meta_rev_at_epoch": 51573,
        "meta_bstar": 0.00041366327,
        "meta_mean_motion_dot": 0.00014974,
        "meta_mean_motion_ddot": 0,
        "tle_line1": "1 41773U 16058D   25342.64525252  .00014974  00000+0  41366-3 0  9996",
        "tle_line2": "2 41773  97.0360   7.3456 0004649  44.7513 315.4107 15.37129465515736"
      },
      "geometry": {
        "type": "Point",
        "coordinates": [
          -5.466758210809072,
          61.47524690667529
        ]
      }
    },
    {
      "type": "Feature",
      "properties": {
        "norad_id": 41774,
        "name": "SKYSAT-C3",
        "group": "resource",
        "lat": 24.476931781570574,
        "lon": -159.9226528154225,
        "alt_km": 432.52934347712016,
        "timestamp": "2025-12-08T23:34:03.626989+00:00",
        "meta_object_name": "SKYSAT-C3",
        "meta_object_id": "2016-058E",
        "meta_epoch": "2025-12-08T15:07:17.647968",
        "meta_mean_motion": 15.44179872,
        "meta_eccentricity": 0.00015952,
        "meta_inclination": 96.93,
        "meta_ra_of_asc_node": 16.5677,
        "meta_arg_of_pericenter": 106.0505,
        "meta_mean_anomaly": 254.092,
        "meta_ephemeris_type": 0,
        "meta_classification_type": "U",
        "meta_norad_cat_id": 41774,
        "meta_element_set_no": 999,
        "meta_rev_at_epoch": 51662,
        "meta_bstar": 0.00051863643,
        "meta_mean_motion_dot": 0.00023741,
        "meta_mean_motion_ddot": 0,
        "tle_line1": "1 41774U 16058E   25342.63006537  .00023741  00000+0  51864-3 0  9992",
        "tle_line2": "2 41774  96.9300  16.5677 0001595 106.0505 254.0920 15.44179872516621"
      },
      "geometry": {
        "type": "Point",
        "coordinates": [
          -159.9226528154225,
          24.476931781570574
        ]
      }
    },
    {
      "type": "Feature",
      "properties": {
        "norad_id": 41785,
        "name": "ALSAT 1B",
        "group": "resource",
        "lat": -82.15084406420723,
        "lon": 92.21532759513606,
        "alt_km": 668.5762971965523,
        "timestamp": "2025-12-08T23:34:03.627000+00:00",
        "meta_object_name": "ALSAT 1B",
        "meta_object_id": "2016-059C",
        "meta_epoch": "2025-12-08T14:11:35.577600",
        "meta_mean_motion": 14.72069557,
        "meta_eccentricity": 0.00106111,
        "meta_inclination": 97.7815,
        "meta_ra_of_asc_node": 354.5602,
        "meta_arg_of_pericenter": 115.5213,
        "meta_mean_anomaly": 244.7094,
        "meta_ephemeris_type": 0,
        "meta_classification_type": "U",
        "meta_norad_cat_id": 41785,
        "meta_element_set_no": 999,
        "meta_rev_at_epoch": 49253,
        "meta_bstar": 0.00015498864,
        "meta_mean_motion_dot": 9.28e-06,
        "meta_mean_motion_ddot": 0,
        "tle_line1": "1 41785U 16059C   25342.59138400  .00000928  00000+0  15499-3 0  9991",
        "tle_line2": "2 41785  97.7815 354.5602 0010611 115.5213 244.7094 14.72069557492535"
      },
      "geometry": {
        "type": "Point",
        "coordinates": [
          92.21532759513606,
          -82.15084406420723
        ]
      }
    },
    {
      "type": "Feature",
      "properties": {
        "norad_id": 41787,
        "name": "PATHFINDER 1",
        "group": "resource",
        "lat": 50.82538747709366,
        "lon": -23.77199813900971,
        "alt_km": 648.9704906058932,
        "timestamp": "2025-12-08T23:34:03.627010+00:00",
        "meta_object_name": "PATHFINDER 1",
        "meta_object_id": "2016-059E",
        "meta_epoch": "2025-12-08T13:30:52.450848",
        "meta_mean_motion": 14.67310713,
        "meta_eccentricity": 0.00300558,
        "meta_inclination": 97.8138,
        "meta_ra_of_asc_node": 345.5305,
        "meta_arg_of_pericenter": 93.8632,
        "meta_mean_anomaly": 266.6011,
        "meta_ephemeris_type": 0,
        "meta_classification_type": "U",
        "meta_norad_cat_id": 41787,
        "meta_element_set_no": 999,
        "meta_rev_at_epoch": 49175,
        "meta_bstar": 0.00028103906,
        "meta_mean_motion_dot": 1.55e-05,
        "meta_mean_motion_ddot": 0,
        "tle_line1": "1 41787U 16059E   25342.56310707  .00001550  00000+0  28104-3 0  9991",
        "tle_line2": "2 41787  97.8138 345.5305 0030055  93.8632 266.6011 14.67310713491755"
      },
      "geometry": {
        "type": "Point",
        "coordinates": [
          -23.77199813900971,
          50.82538747709366
        ]
      }
    },
    {
      "type": "Feature",
      "properties": {
        "norad_id": 41790,
        "name": "SCATSAT 1",
        "group": "resource",
        "lat": -66.6779515485716,
        "lon": -159.80089438953928,
        "alt_km": 652.0449461719318,
        "timestamp": "2025-12-08T23:34:03.627020+00:00",
        "meta_object_name": "SCATSAT 1",
        "meta_object_id": "2016-059H",
        "meta_epoch": "2025-12-08T14:20:06.480672",
        "meta_mean_motion": 14.78915908,
        "meta_eccentricity": 0.00560796,
        "meta_inclination": 98.1466,
        "meta_ra_of_asc_node": 39.2159,
        "meta_arg_of_pericenter": 141.092,
        "meta_mean_anomaly": 219.4348,
        "meta_ephemeris_type": 0,
        "meta_classification_type": "U",
        "meta_norad_cat_id": 41790,
        "meta_element_set_no": 999,
        "meta_rev_at_epoch": 7341,
        "meta_bstar": 0.00040402115,
        "meta_mean_motion_dot": 3.002e-05,
        "meta_mean_motion_ddot": 0,
        "tle_line1": "1 41790U 16059H   25342.59729723  .00003002  00000+0  40402-3 0  9999",
        "tle_line2": "2 41790  98.1466  39.2159 0056079 141.0920 219.4348 14.78915908 73418"
      },
      "geometry": {
        "type": "Point",
        "coordinates": [
          -159.80089438953928,
          -66.6779515485716
        ]
      }
    },
    {
      "type": "Feature",
      "properties": {
        "norad_id": 41875,
        "name": "GOKTURK 1A",
        "group": "resource",
        "lat": -10.216602340944707,
        "lon": 53.9185999693043,
        "alt_km": 688.7207811342969,
        "timestamp": "2025-12-08T23:34:03.627030+00:00",
        "meta_object_name": "GOKTURK 1A",
        "meta_object_id": "2016-073A",
        "meta_epoch": "2025-12-08T14:29:32.976960",
        "meta_mean_motion": 14.62773028,
        "meta_eccentricity": 0.00012331,
        "meta_inclination": 98.1436,
        "meta_ra_of_asc_node": 235.0244,
        "meta_arg_of_pericenter": 83.3627,
        "meta_mean_anomaly": 276.7715,
        "meta_ephemeris_type": 0,
        "meta_classification_type": "U",
        "meta_norad_cat_id": 41875,
        "meta_element_set_no": 999,
        "meta_rev_at_epoch": 48096,
        "meta_bstar": 0.00022061279,
        "meta_mean_motion_dot": 1.078e-05,
        "meta_mean_motion_ddot": 0,
        "tle_line1": "1 41875U 16073A   25342.60385390  .00001078  00000+0  22061-3 0  9991",
        "tle_line2": "2 41875  98.1436 235.0244 0001233  83.3627 276.7715 14.62773028480968"
      },
      "geometry": {
        "type": "Point",
        "coordinates": [
          53.9185999693043,
          -10.216602340944707
        ]
      }
    }
  ]
}